[{"OBJECT_NAME":"BANDWAGON-2 OBJECT D","OBJECT_ID":"2024-247D","EPOCH":"2026-03-09T12:32:33.670752","MEAN_MOTION":15.29076102,"ECCENTRICITY":0.00034883,"INCLINATION":44.9954,"RA_OF_ASC_NODE":115.671,"ARG_OF_PERICENTER":351.1453,"MEAN_ANOMALY":8.9368,"EPHEMERIS_TYPE":0,"CLASSIFICATION_TYPE":"U","NORAD_CAT_ID":62380,"ELEMENT_SET_NO":999,"REV_AT_EPOCH":6773,"BSTAR":0.00040119131,"MEAN_MOTION_DOT":0.00011259,"MEAN_MOTION_DDOT":0},{"OBJECT_NAME":"STARLINK-35827","OBJECT_ID":"2025-254T","EPOCH":"2026-03-09T17:41:21.264288","MEAN_MOTION":15.30204167,"ECCENTRICITY":9.109e-5,"INCLINATION":53.1579,"RA_OF_ASC_NODE":232.1795,"ARG_OF_PERICENTER":69.894,"MEAN_ANOMALY":290.2159,"EPHEMERIS_TYPE":0,"CLASSIFICATION_TYPE":"U","NORAD_CAT_ID":66365,"ELEMENT_SET_NO":999,"REV_AT_EPOCH":1898,"BSTAR":0.0015561682,"MEAN_MOTION_DOT":0.00046022,"MEAN_MOTION_DDOT":0}]
